0 COSMOS 1674
1 15944U 85069A   18224.91433714 +.00000555 +00000-0 +24770-4 0  9999
2 15944 082.5097 171.3214 0018950 103.1797 257.1553 15.19042300801750
0 SL-14 R/B
1 15945U 85069B   18224.78706282 +.00000074 +00000-0 +59643-5 0  9992
2 15945 082.5270 098.1848 0019058 335.0196 025.0095 14.83978523783557
0 SCOUT G-1 DEB
1 15950U 85066D   18224.82274130 +.00000601 +00000-0 +45678-3 0  9999
2 15950 089.9174 331.4431 0118313 187.3815 298.0362 13.89463584642833
0 COSMOS 1677
1 15986U 85075A   18224.73323715 -.00000088 +00000-0 +31857-5 0  9998
2 15986 064.6818 287.5802 0047232 044.4791 316.0044 13.86549751660642
0 OPTUS A1 (AUSSAT 1)
1 15993U 85076B   18224.61514188 -.00000140 +00000-0 +00000-0 0  9990
2 15993 015.2890 002.8949 0005701 304.8538 234.0120 00.99768584091008
0 LEASAT 4
1 15995U 85076D   18224.60018552 -.00000159 +00000-0 +00000-0 0  9995
2 15995 013.5230 349.1780 0008966 292.8501 091.0040 00.97799938090119
0 LEASAT 4 PKM
1 16001U 85076F   18224.68302080 +.00000210 +00000-0 +78722-4 0  9991
2 16001 027.3852 097.2370 5059684 359.6478 000.1652 05.44255862635339
0 COSMOS 1680
1 16011U 85079A   18224.91176664 -.00000009 +00000-0 +61719-5 0  9994
2 16011 074.0540 157.7918 0015828 317.3024 042.6896 14.33190126721277
0 SL-8 R/B
1 16012U 85079B   18224.80163691 +.00000063 +00000-0 +30630-4 0  9995
2 16012 074.0585 081.7092 0015784 242.0943 117.8612 14.36288049724124
0 SCOUT G-1 DEB
1 16020U 85066F   18224.63303706 +.00000006 +00000-0 -49804-5 0  9996
2 16020 090.2776 304.5647 0141784 171.8785 287.5270 13.40343201612183
0 SL-6 R/B(2)
1 16070U 85084D   18224.75913017 +.00000132 +00000-0 +00000-0 0  9995
2 16070 070.4094 206.9170 4843904 075.2802 082.7253 02.03974330244920
0 COSMOS 1687
1 16103U 85088A   18224.81494556 +.00000794 +00000-0 +00000-0 0  9999
2 16103 069.7680 158.8596 5423855 060.5314 248.5730 02.00764524240759
0 SL-6 R/B(2)
1 16106U 85088D   18224.23855685 -.00000413 +00000-0 +00000-0 0  9991
2 16106 067.7756 003.0945 5928214 080.2626 338.3870 02.04650793245436
0 SL-3 R/B
1 16111U 85090B   18224.93490188 +.00003758 +00000-0 +53036-4 0  9995
2 16111 097.4026 354.7255 0012474 257.6701 102.3158 15.57192386809832
0 NAVSTAR 11 (USA 10)
1 16129U 85093A   18224.74657160 +.00000012 +00000-0 +00000-0 0  9990
2 16129 062.7009 163.8714 0245909 043.6248 186.4582 01.89368727175032
0 ATLAS 55E R/B
1 16137U 85093B   18224.70795095 -.00000015 +00000-0 +00000-0 0  9999
2 16137 063.6228 217.8511 5736948 356.1909 095.5399 03.91021974469024
0 COSMOS 1690
1 16138U 85094A   18224.60946294 +.00000023 +00000-0 +67763-4 0  9990
2 16138 082.6043 255.0042 0021325 001.0785 114.7300 12.66022009517755
0 COSMOS 1691
1 16139U 85094B   18224.73144958 +.00000008 +00000-0 -15727-4 0  9999
2 16139 082.6132 310.4914 0001276 149.0113 322.9554 12.62396412513679
0 COSMOS 1692
1 16140U 85094C   18224.86738979 +.00000020 +00000-0 +52188-4 0  9992
2 16140 082.5982 262.0004 0018548 055.7519 005.9150 12.64908411516233
0 COSMOS 1693
1 16141U 85094D   18224.64389803 +.00000031 +00000-0 +11050-3 0  9991
2 16141 082.6091 279.9097 0015930 078.4224 033.2243 12.64348315515521
0 COSMOS 1694
1 16142U 85094E   18224.69097542 +.00000033 +00000-0 +11982-3 0  9999
2 16142 082.6087 287.7794 0012598 100.9600 023.1869 12.63676764514739
0 COSMOS 1695
1 16143U 85094F   18224.67133234 +.00000031 +00000-0 +11220-3 0  9990
2 16143 082.6030 292.7006 0007971 138.6238 337.7999 12.62888263514033
0 SL-14 R/B
1 16144U 85094G   18224.83900399 +.00000009 +00000-0 -94432-5 0  9997
2 16144 082.6065 049.5936 0036826 025.2041 061.2132 12.54867614504367
0 COSMOS 1697
1 16181U 85097A   18224.56095816 -.00000121 +00000-0 -38801-4 0  9993
2 16181 070.9620 266.0929 0017036 012.9683 347.1873 14.13401628559016
0 SL-16 R/B
1 16182U 85097B   18224.93320906 -.00000168 +00000-0 -60741-4 0  9995
2 16182 071.0011 200.7110 0006765 168.6050 255.5724 14.16232240695657
0 SL-6 R/B(2)
1 16186U 85098D   18224.81494556 +.00000721 +00000-0 +00000-0 0  9991
2 16186 069.6011 162.0186 5319201 065.1699 232.3120 02.03409857243558
0 METEOR 3-1
1 16191U 85100A   18224.65678480 +.00000155 +00000-0 +36982-3 0  9995
2 16191 082.5456 263.5111 0018963 325.4865 150.6046 13.17213698577078
0 SL-14 R/B
1 16194U 85100B   18224.68811984 +.00000276 +00000-0 +79783-3 0  9999
2 16194 082.5873 077.2722 0016310 000.7976 061.6423 13.06743495564169
0 COSMOS 1700
1 16199U 85102A   18224.84834205 -.00000249 +00000-0 +00000-0 0  9999
2 16199 014.0440 343.0526 0003812 168.0810 204.7284 01.00242032122941
0 COSMOS 1375 DEB
1 16202U 82055D   18224.90269753 +.00000005 +00000-0 +63159-4 0  9992
2 16202 065.8292 094.3355 0082348 004.3364 087.7582 13.96495312837513
0 COSMOS 1375 DEB
1 16204U 82055F   18224.91426698 -.00000081 +00000-0 +23824-6 0  9990
2 16204 065.8341 044.3253 0014748 104.1778 001.4586 13.79808212652474
0 COSMOS 1375 DEB
1 16205U 82055G   18224.86917167 +.00000103 +00000-0 +18414-3 0  9991
2 16205 065.8276 080.1857 0057329 024.5493 062.2903 13.76948978643009
0 COSMOS 1375 DEB
1 16206U 82055H   18224.97231946 -.00000034 +00000-0 +49810-4 0  9997
2 16206 065.8346 062.7190 0020334 337.6514 170.8670 13.73236710812895
0 COSMOS 1375 DEB
1 16207U 82055J   18224.96752458 -.00000048 +00000-0 +39421-4 0  9995
2 16207 065.8354 065.7034 0072930 125.5112 022.1647 13.57562860626045
0 COSMOS 1375 DEB
1 16209U 82055L   18224.93156049 -.00000052 +00000-0 +31384-4 0  9993
2 16209 065.8356 106.3891 0024215 313.1770 178.0264 13.71282718647530
0 LEASAT 3 PKM
1 16229U 85028E   18224.73994500 +.00001349 +00000-0 +25588-3 0  9995
2 16229 026.9664 290.4999 4838813 245.6863 057.2689 05.87622425539472
0 RADUGA 17
1 16250U 85107A   18224.57728153 -.00000082 +00000-0 +00000-0 0  9991
2 16250 013.9942 342.6157 0009839 160.8171 194.9065 01.00190022123099
0 COSMOS 1703
1 16262U 85108A   18224.90817771 -.00000022 +00000-0 -31837-5 0  9999
2 16262 082.4807 195.6128 0010552 264.8340 095.1686 15.10811736782308
0 SL-14 R/B
1 16263U 85108B   18224.73415191 +.00000069 +00000-0 +55061-5 0  9995
2 16263 082.5020 078.8507 0021150 043.1648 005.2228 14.83039644766861
0 COSMOS 1691 DEB
1 16267U 85094L   18224.81434926 -.00000020 +00000-0 -99722-4 0  9999
2 16267 082.5869 336.3926 0065863 097.1393 030.7404 13.05886326170675
0 COSMOS 1691 DEB
1 16268U 85094M   18224.93182465 +.00000155 +00000-0 +86568-3 0  9991
2 16268 082.7137 175.0220 0084130 086.8614 340.9129 12.55575794497131
0 COSMOS 1691 DEB
1 16269U 85094N   18224.69414858 +.00000015 +00000-0 +25689-4 0  9992
2 16269 082.6271 328.1182 0012288 137.6322 350.0636 12.62152996512129
0 COSMOS 1691 DEB
1 16270U 85094P   18224.80990200 +.00000091 +00000-0 +35569-3 0  9998
2 16270 082.7333 359.6824 0261995 164.8472 310.7749 12.68349784518451
0 MORELOS 2
1 16274U 85109B   18224.61732277 -.00000096 +00000-0 +00000-0 0  9991
2 16274 014.3766 020.0629 0002828 050.1811 123.1720 00.99567436017827
0 COSMOS 1704
1 16291U 85110A   18224.70692735 +.00000049 +00000-0 +34888-4 0  9998
2 16291 082.9336 088.5305 0032458 124.6644 297.7996 13.74603072640248
0 SL-8 R/B
1 16292U 85110B   18224.94288980 -.00000073 +00000-0 -88664-4 0  9998
2 16292 082.9295 049.9893 0030103 351.0946 008.9673 13.76965206642947
0 MORELOS 2 R/B(PAM-D)
1 16293U 85109F   18224.77651304 +.00000002 +00000-0 +28013-3 0  9993
2 16293 025.5836 190.7452 7161280 020.9600 357.3699 02.34492301213255
0 COSMOS 1707
1 16326U 85113A   18224.88888739 +.00000774 +00000-0 +41184-4 0  9992
2 16326 082.5131 153.9333 0008918 289.1226 070.9040 15.13764730780858
0 SL-14 R/B
1 16327U 85113B   18224.66389766 +.00000054 +00000-0 +36634-5 0  9991
2 16327 082.5323 058.3711 0020073 042.1520 025.5987 14.83408995743219
0 SL-12 R/B(2)
1 16339U 85107F   18224.86716330 -.00000068 +00000-0 +00000-0 0  9999
2 16339 015.1620 346.0249 0017392 042.3927 318.2696 00.97494315099449
0 COSMOS 1709
1 16368U 85116A   18224.74077346 +.00000029 +00000-0 +14653-4 0  9994
2 16368 082.9431 073.3445 0034662 190.0311 218.4194 13.74459636637468
0 SL-8 R/B
1 16369U 85116B   18224.95907285 -.00000072 +00000-0 -88372-4 0  9991
2 16369 082.9363 034.4778 0037522 059.1229 095.1509 13.76824800639712
0 COSMOS 1375 DEB
1 16375U 82055P   18224.90494507 -.00000063 +00000-0 +17653-4 0  9993
2 16375 065.8340 051.7684 0019825 146.0924 282.6211 13.80067657652594
0 COSMOS 1375 DEB
1 16376U 82055Q   18224.96265372 +.00000093 +00000-0 +13725-3 0  9993
2 16376 065.8284 054.8217 0012441 054.9366 019.7177 13.92609440660686
0 COSMOS 1375 DEB
1 16377U 82055R   18224.85444363 +.00000171 +00000-0 +17410-3 0  9993
2 16377 065.8243 212.5481 0030957 052.7413 024.8358 13.99920779665332
0 COSMOS 1375 DEB
1 16379U 82055T   18224.81496557 -.00000095 +00000-0 -13448-4 0  9998
2 16379 065.8358 141.1201 0008587 055.0953 014.0887 13.77930137230293
0 COSMOS 1375 DEB
1 16380U 82055U   18224.86115480 -.00000040 +00000-0 +47798-4 0  9992
2 16380 065.8368 119.9065 0042656 051.2078 016.1014 13.63845170633769
0 COSMOS 1375 DEB
1 16382U 82055W   18224.92390543 +.00000474 +00000-0 +24374-3 0  9990
2 16382 065.7457 163.0732 0042112 285.3936 133.4490 14.24040810680589
0 COSMOS 1375 DEB
1 16383U 82055X   18224.93261735 -.00000036 +00000-0 +46832-4 0  9991
2 16383 065.8304 155.8690 0053419 314.6546 118.7990 13.73924397641277
0 COSMOS 1375 DEB
1 16385U 82055Z   18224.92531267 +.00000113 +00000-0 +17623-3 0  9992
2 16385 065.8298 162.3549 0037627 270.5581 149.4868 13.83515463649598
0 COSMOS 1375 DEB
1 16387U 82055AB  18224.91313868 -.00000094 +00000-0 -95594-5 0  9993
2 16387 065.8351 159.2692 0044004 048.9200 010.6366 13.84711934658253
0 SL-16 DEB
1 16389U 85097C   18224.88096224 -.00000039 +00000-0 +41783-5 0  9993
2 16389 071.0017 046.3283 0190040 305.3172 053.0287 13.76064553646849
